[
    {
        "Altitude(m)": 612513.9085196233,
        "Argument of Periapsis(deg)": 0.0,
        "Eccentricity": 0.0,
        "Inclination(deg)": 60.0,
        "Latitude(deg)": -28.13588854925508,
        "Longitude(deg)": 42.9131623842218,
        "Mean Anomaly(deg)": -147.2727,
        "RAAN(deg)": 305.0,
        "Satellite Name": "Test1 1355",
        "Satellite Number": 1355,
        "Semi-Major Axis(m)": 6980739.136638005,
        "Time(s)": 0
    },
    {
        "Altitude(m)": 612708.2760474717,
        "Argument of Periapsis(deg)": 0.00010418945913296404,
        "Eccentricity": 0.0,
        "Inclination(deg)": 60.0,
        "Latitude(deg)": -28.647627157568586,
        "Longitude(deg)": 43.2703935328279,
        "Mean Anomaly(deg)": -146.65259385453814,
        "RAAN(deg)": 304.99957995086027,
        "Satellite Name": "Test1 1355",
        "Satellite Number": 1355,
        "Semi-Major Axis(m)": 6980739.136638005,
        "Time(s)": 10
    }
]